RADCAL                  
1 22698U 93041A   09118.41014240  .00000136  00000-0  52294-4 0  3191
2 22698  89.5356  29.8378 0091404 119.0925 241.9442 14.22813678822197
STRV 1A                 
1 23125U 94034B   09117.53433998  .00001032  00000-0  23084-3 0  4222
2 23125   7.2572 113.1844 6842650 238.9514  37.1298  2.84986226138002
STRV 1B                 
1 23126U 94034C   09117.27132161  .00009915  00000-0  92016-3 0  4209
2 23126   7.3037  61.4248 6816450 341.6453   2.5572  2.91104102140160
HELIOS 1A               
1 23605U 95033A   09118.82933282  .00000150  00000-0  37633-4 0   726
2 23605  98.0815  56.4627 0001674 129.3431 230.7934 14.63861209737959
REX 2                   
1 23814U 96014A   09117.98447508  .00000022  00000-0  49221-5 0  6658
2 23814  90.1541 271.3590 0024253 113.4387 246.9365 14.23863691682408
COSMOS 2346             
1 24953U 97052A   09118.20223563  .00000025  00000-0  94931-5 0  4610
2 24953  82.9239 353.1347 0038272 273.0675  86.6104 13.79434049583731
ARGOS                   
1 25634U 99008A   09118.74744856 -.00000239  00000-0 -92373-4 0  7048
2 25634  99.0152 154.9794 0011079  89.0371 271.2071 14.18906233527037
HELIOS 1B               
1 25977U 99064A   09118.59517214 -.00000419  00000-0 -50715-4 0  2116
2 25977  98.3415 117.6110 0002520 107.4165 252.7316 14.77681409504600
MTI                     
1 26102U 00014A   09118.71182506 -.00000030  00000-0  18130-5 0  5623
2 26102  97.2142 285.6309 0018312 284.6583 197.6513 15.11720473501922
STRV 1C                 
1 26610U 00072C   09115.89676232 -.00000179  00000-0  00000+0 0  9181
2 26610   6.7905 301.8981 7327449  32.6988 356.5381  2.03462351 62753
OFEQ 5                  
1 27434U 02025A   09118.78873651  .00000793  00000-0  22186-4 0  1469
2 27434 143.4653 350.4517 0026967 333.9797  25.9583 15.05571884385848
HELIOS-2A               
1 28492U 04049A   09118.79439097  .00000115  00000-0  30925-4 0  8897
2 28492  98.0845  56.5440 0001443 116.2586 243.8785 14.63856098232910
ESSAIM-1                
1 28494U 04049C   09118.83674119 -.00000008  00000-0  70938-5 0  9522
2 28494  98.2518  77.2475 0003792  48.5575 311.5976 14.70160880233835
ESSAIM-2                
1 28495U 04049D   09118.83629532  .00000023  00000-0  12285-4 0  9809
2 28495  98.2518  77.3491 0004582  41.2844 318.8733 14.70161539233835
ESSAIM-3                
1 28496U 04049E   09118.83690131  .00000095  00000-0  24276-4 0  9108
2 28496  98.2650  81.5605 0009859  47.9132 312.2919 14.70160628234015
ESSAIM-4                
1 28497U 04049F   09118.83642743  .00000102  00000-0  25548-4 0  9646
2 28497  98.2649  81.6001 0012957  43.2924 316.9315 14.70160102234014
SAR-LUPE 1              
1 29658U 06060A   09118.81922623  .00000704  00000-0  30213-4 0  6399
2 29658  98.1294 214.0915 0021882  73.3931  79.3080 15.26430208131399
MIDSTAR-1               
1 30773U 07006B   09118.40710856 -.00000304  00000-0  00000+0 0  6098
2 30773  46.0325 262.9271 0011342 283.3389  76.6280 15.23735138119141
CFESAT                  
1 30777U 07006F   09117.94489530  .00000307  00000-0  25633-4 0  5648
2 30777  35.4324  47.8319 0003021 188.8234 171.2433 15.02726292117498
NFIRE                   
1 31140U 07014A   09118.19219681  .00002411  00000-0  35921-4 0  7919
2 31140  48.2293 116.4983 0052276 137.4744 223.0266 15.58197850114436
OFEQ 7                  
1 31601U 07025A   09118.87913122  .00001946  00000-0  64357-4 0  1404
2 31601 141.7478 165.9695 0069549 139.1173 343.0867 15.19504101104928
SAR-LUPE 2              
1 31797U 07030A   09118.80480981  .00000488  00000-0  22089-4 0   417
2 31797  98.1913 283.3551 0014541  26.7962  83.7840 15.26389732101619
SAR-LUPE 3              
1 32283U 07053A   09118.81535288  .00000528  00000-0  23521-4 0  6700
2 32283  98.1311 345.5235 0011924 127.8980   2.6295 15.26452613 83125
SAR-LUPE 4              
1 32750U 08014A   09118.80708209  .00000655  00000-0  28402-4 0  2127
2 32750  98.1250 215.1810 0020918 240.3005 276.3134 15.26401510 60575
SAR-LUPE 5              
1 33244U 08036A   09118.80215205  .00000494  00000-0  22214-4 0  8581
2 33244  98.1252 343.9879 0020246 288.3730 201.9685 15.26444680 42819
SPIRALE A               
1 33751U 09008C   09118.24810783 -.00000056  00000-0  10000-3 0   603
2 33751   1.8191 271.1038 7141854 235.1514  36.8771  2.25833148  1687
SPIRALE B               
1 33752U 09008D   09116.94292525  .00000052  00000-0  17223-2 0   481
2 33752   1.8295 271.8979 7137721 233.7424  38.3567  2.25836535  1656
